OBJECT_NAME,OBJECT_ID,EPOCH,MEAN_MOTION,ECCENTRICITY,INCLINATION,RA_OF_ASC_NODE,ARG_OF_PERICENTER,MEAN_ANOMALY,EPHEMERIS_TYPE,CLASSIFICATION_TYPE,NORAD_CAT_ID,ELEMENT_SET_NO,REV_AT_EPOCH,BSTAR,MEAN_MOTION_DOT,MEAN_MOTION_DDOT
GALAXY 33 (G-33),2022-128A,2026-06-17T17:28:13.171872,1.00272294,.00016388,0.0135,36.9082,51.3449,306.7868,0,U,54026,999,1374,0,.74E-6,0
GALAXY 34 (G-34),2022-128B,2026-06-17T17:29:13.077312,1.00277403,.00016095,0.0148,14.9716,90.3282,293.9894,0,U,54027,999,1391,0,.53E-6,0
ANGOSAT 2,2022-131A,2026-06-17T14:47:16.935072,1.00272126,.00007151,0.0320,83.0963,28.7776,38.8139,0,U,54033,999,1348,0,.13E-5,0
EUTELSAT HOTBIRD 13F,2022-134A,2026-06-17T21:35:07.208736,1.00270893,.00021115,0.0520,293.4406,61.8756,247.6221,0,U,54048,999,1338,0,.81E-6,0
LDPE-2,2022-144A,2026-06-17T10:59:02.689728,1.00532319,.000182,5.6144,63.6516,103.2842,106.3014,0,U,54219,999,1184,0,.121E-5,0
EUTELSAT HOTBIRD 13G,2022-146A,2026-06-17T21:35:07.208736,1.00270133,.00019113,0.0497,232.8985,312.1649,57.8652,0,U,54225,999,747,0,.81E-6,0
ZHONGXING-19,2022-148A,2026-06-17T22:17:56.122656,1.00271502,.00023229,0.0161,16.4367,94.6473,292.7654,0,U,54230,999,1338,0,-.87E-6,0
GALAXY 31 (G-31),2022-153A,2026-06-17T15:48:54.797184,1.00271249,.00010468,0.0132,53.6046,23.1287,305.3899,0,U,54243,999,713,0,.8E-7,0
GALAXY 32 (G-32),2022-153B,2026-06-17T21:05:25.226016,1.00271682,.00020733,0.0094,18.6564,14.9107,97.9137,0,U,54244,999,1315,0,-.18E-5,0
EUTELSAT 10B,2022-157A,2026-06-17T21:34:14.793312,1.00265094,.00010959,0.0628,98.0866,11.8851,129.7354,0,U,54259,999,1303,0,.62E-6,0
GALAXY 35 (G-35),2022-170A,2026-06-17T21:04:55.273728,1.00272004,.00017613,0.0144,34.2307,49.0374,45.9727,0,U,54741,999,1290,0,-.168E-5,0
GALAXY 36 (G-36),2022-170B,2026-06-17T21:06:02.665728,1.00270129,.00025533,0.0109,303.6397,141.1237,48.8681,0,U,54742,999,1278,0,-.19E-5,0
METEOSAT-12 (MTG-I1),2022-170C,2026-06-17T21:31:15.079584,1.00272808,.00031999,0.7394,23.1416,71.1996,134.2072,0,U,54743,999,1298,0,-.14E-6,0
SHIJIAN-23 (SJ-23),2023-002A,2026-06-17T17:30:09.823968,1.00087498,.0003809,3.7196,78.3065,272.9008,325.0641,0,U,55131,999,1251,0,-.26E-5,0
APSTAR-6E,2023-005A,2026-06-15T17:07:09.418944,1.00268070,.00011143,0.0372,251.5524,313.0083,90.2366,0,U,55239,999,1867,0,-.316E-5,0
USA 342,2023-008A,2026-06-15T08:02:26.115936,1.00270392,.0000187,0.0090,64.0068,223.8693,120.1932,0,U,55263,999,1249,0,.142E-5,0
LDPE-3A,2023-008B,2026-06-17T14:09:13.084992,0.99144822,.00011067,2.3496,81.6580,62.8846,222.9387,0,U,55264,999,1181,0,.49E-6,0
ELEKTRO-L 4,2023-016A,2026-06-17T19:12:34.109856,1.00270807,.00007996,0.0746,162.8344,12.3930,184.7627,0,U,55506,999,1233,0,-.64E-6,0
AMAZONAS NEXUS,2023-017A,2026-06-17T11:40:14.561760,1.00269694,.0004936,0.0383,36.9392,30.7226,312.1388,0,U,55508,999,704,0,-.287E-5,0
ZHONGXING-26,2023-023A,2026-06-16T18:44:30.448608,1.00271639,.00032663,0.0665,70.0780,19.8711,221.3542,0,U,55686,999,1222,0,-.356E-5,0
LUCH-5X (OLYMP-K 2),2023-031A,2026-06-17T18:23:47.321088,1.00272450,.0000684,0.0237,60.4476,145.7824,37.7201,0,U,55841,999,1194,0,.28E-6,0
GAOFEN-13 02,2023-036A,2026-06-17T22:13:41.530368,1.00270309,.00041035,1.0209,1.2810,335.7583,50.8499,0,U,55912,999,1210,0,-.224E-5,0
SES-18,2023-038A,2026-06-17T15:54:01.806624,1.00272971,.00001338,0.0203,294.5456,304.6539,162.1171,0,U,55970,999,1210,0,-.106E-5,0
SES-19,2023-038B,2026-06-17T15:44:55.179744,1.00271660,.00014161,0.0112,19.4561,62.5195,285.2587,0,U,55971,999,1209,0,.83E-6,0
INTELSAT 40E (IS-40E),2023-052A,2026-06-17T15:57:23.984352,1.00271165,.00019225,0.0189,48.0105,78.3886,287.8621,0,U,56174,999,1182,0,-.179E-5,0
VIASAT-3 F1,2023-060A,2026-06-17T15:57:38.960064,1.00270651,.00010912,0.0240,348.4553,91.8716,336.0422,0,U,56370,999,1143,0,0,0
ARCTURUS,2023-060B,2026-06-16T22:51:22.921632,1.00272378,.00025588,2.7748,79.9563,49.6160,190.9835,0,U,56371,999,1145,0,-.68E-6,0
GS-1,2023-060C,2026-06-17T20:14:15.131616,1.00274442,.00038166,2.7275,79.8251,282.0465,297.1917,0,U,56372,999,754,0,-.231E-5,0
BEIDOU-3 G4,2023-066A,2026-06-17T22:11:19.257216,1.00273446,.00043481,0.4856,331.7510,180.5639,226.7214,0,U,56564,999,1140,0,-.286E-5,0
ARABSAT-7B (BADR-8),2023-075A,2026-06-17T21:38:46.388256,1.00271185,.00044989,0.0761,29.2884,354.1441,233.4156,0,U,56757,999,1112,0,.139E-5,0
NVS-01 (IRNSS-1J),2023-076A,2026-06-17T22:08:19.544352,1.00264424,.00031407,2.1636,244.3133,36.1029,87.2644,0,U,56759,999,1112,0,-.341E-5,0
