GALAXY 33 (G-33)        
1 54026U 22128A   26168.72793023  .00000074  00000+0  00000+0 0  9997
2 54026   0.0135  36.9082 0001638  51.3449 306.7868  1.00272294 13740
GALAXY 34 (G-34)        
1 54027U 22128B   26168.72862358  .00000053  00000+0  00000+0 0  9993
2 54027   0.0148  14.9716 0001609  90.3282 293.9894  1.00277403 13913
ANGOSAT 2               
1 54033U 22131A   26168.61616823  .00000130  00000+0  00000+0 0  9992
2 54033   0.0320  83.0963 0000715  28.7776  38.8139  1.00272126 13480
EUTELSAT HOTBIRD 13F    
1 54048U 22134A   26168.89938899  .00000081  00000+0  00000+0 0  9996
2 54048   0.0520 293.4406 0002111  61.8756 247.6221  1.00270893 13385
LDPE-2                  
1 54219U 22144A   26168.45767002  .00000121  00000+0  00000+0 0  9990
2 54219   5.6144  63.6516 0001820 103.2842 106.3014  1.00532319 11844
EUTELSAT HOTBIRD 13G    
1 54225U 22146A   26168.89938899  .00000081  00000+0  00000+0 0  9996
2 54225   0.0497 232.8985 0001911 312.1649  57.8652  1.00270133  7473
ZHONGXING-19            
1 54230U 22148A   26168.92912179 -.00000087  00000+0  00000+0 0  9998
2 54230   0.0161  16.4367 0002322  94.6473 292.7654  1.00271502 13381
GALAXY 31 (G-31)        
1 54243U 22153A   26168.65896756  .00000008  00000+0  00000+0 0  9992
2 54243   0.0132  53.6046 0001046  23.1287 305.3899  1.00271249  7138
GALAXY 32 (G-32)        
1 54244U 22153B   26168.87876419 -.00000180  00000+0  00000+0 0  9993
2 54244   0.0094  18.6564 0002073  14.9107  97.9137  1.00271682 13151
EUTELSAT 10B            
1 54259U 22157A   26168.89878233  .00000062  00000+0  00000+0 0  9999
2 54259   0.0628  98.0866 0001095  11.8851 129.7354  1.00265094 13034
GALAXY 35 (G-35)        
1 54741U 22170A   26168.87841752 -.00000168  00000+0  00000+0 0  9992
2 54741   0.0144  34.2307 0001761  49.0374  45.9727  1.00272004 12905
GALAXY 36 (G-36)        
1 54742U 22170B   26168.87919752 -.00000190  00000+0  00000+0 0  9994
2 54742   0.0109 303.6397 0002553 141.1237  48.8681  1.00270129 12784
METEOSAT-12 (MTG-I1)    
1 54743U 22170C   26168.89670231 -.00000014  00000+0  00000+0 0  9998
2 54743   0.7394  23.1416 0003199  71.1996 134.2072  1.00272808 12987
SHIJIAN-23 (SJ-23)      
1 55131U 23002A   26168.72928037 -.00000260  00000+0  00000+0 0  9990
2 55131   3.7196  78.3065 0003809 272.9008 325.0641  1.00087498 12517
APSTAR-6E               
1 55239U 23005A   26166.71330346 -.00000316  00000+0  00000+0 0  9991
2 55239   0.0372 251.5524 0001114 313.0083  90.2366  1.00268070 18679
USA 342                 
1 55263U 23008A   26166.33502449  .00000142  00000+0  00000+0 0  9990
2 55263   0.0090  64.0068 0000187 223.8693 120.1932  1.00270392 12493
LDPE-3A                 
1 55264U 23008B   26168.58973478  .00000049  00000+0  00000+0 0  9990
2 55264   2.3496  81.6580 0001106  62.8846 222.9387  0.99144822 11811
ELEKTRO-L 4             
1 55506U 23016A   26168.80039479 -.00000064  00000+0  00000+0 0  9995
2 55506   0.0746 162.8344 0000799  12.3930 184.7627  1.00270807 12330
AMAZONAS NEXUS          
1 55508U 23017A   26168.48627965 -.00000287  00000+0  00000+0 0  9992
2 55508   0.0383  36.9392 0004936  30.7226 312.1388  1.00269694  7047
ZHONGXING-26            
1 55686U 23023A   26167.78090797 -.00000356  00000+0  00000+0 0  9992
2 55686   0.0665  70.0780 0003266  19.8711 221.3542  1.00271639 12220
LUCH-5X (OLYMP-K 2)     
1 55841U 23031A   26168.76651992  .00000028  00000+0  00000+0 0  9998
2 55841   0.0237  60.4476 0000684 145.7824  37.7201  1.00272450 11949
GAOFEN-13 02            
1 55912U 23036A   26168.92617512 -.00000224  00000+0  00000+0 0  9999
2 55912   1.0209   1.2810 0004103 335.7583  50.8499  1.00270309 12101
SES-18                  
1 55970U 23038A   26168.66252091 -.00000106  00000+0  00000+0 0  9992
2 55970   0.0203 294.5456 0000133 304.6539 162.1171  1.00272971 12107
SES-19                  
1 55971U 23038B   26168.65619421  .00000083  00000+0  00000+0 0  9999
2 55971   0.0112  19.4561 0001416  62.5195 285.2587  1.00271660 12091
INTELSAT 40E (IS-40E)   
1 56174U 23052A   26168.66486093 -.00000179  00000+0  00000+0 0  9996
2 56174   0.0189  48.0105 0001922  78.3886 287.8621  1.00271165 11824
VIASAT-3 F1             
1 56370U 23060A   26168.66503426  .00000000  00000+0  00000+0 0  9995
2 56370   0.0240 348.4553 0001091  91.8716 336.0422  1.00270651 11435
ARCTURUS                
1 56371U 23060B   26167.95234863 -.00000068  00000+0  00000+0 0  9998
2 56371   2.7748  79.9563 0002558  49.6160 190.9835  1.00272378 11453
GS-1                    
1 56372U 23060C   26168.84323069 -.00000231  00000+0  00000+0 0  9997
2 56372   2.7275  79.8251 0003816 282.0465 297.1917  1.00274442  7541
BEIDOU-3 G4             
1 56564U 23066A   26168.92452844 -.00000286  00000+0  00000+0 0  9999
2 56564   0.4856 331.7510 0004348 180.5639 226.7214  1.00273446 11409
ARABSAT-7B (BADR-8)     
1 56757U 23075A   26168.90192579  .00000139  00000+0  00000+0 0  9993
2 56757   0.0761  29.2884 0004498 354.1441 233.4156  1.00271185 11120
NVS-01 (IRNSS-1J)       
1 56759U 23076A   26168.92244843 -.00000341  00000+0  00000+0 0  9996
2 56759   2.1636 244.3133 0003140  36.1029  87.2644  1.00264424 11120
